[{"OBJECT_NAME":"OBJECT B","OBJECT_ID":"2024-153B","EPOCH":"2026-03-09T23:15:18.632160","MEAN_MOTION":15.30512917,"ECCENTRICITY":0.00113423,"INCLINATION":97.6622,"RA_OF_ASC_NODE":204.9195,"ARG_OF_PERICENTER":149.8438,"MEAN_ANOMALY":210.3457,"EPHEMERIS_TYPE":0,"CLASSIFICATION_TYPE":"U","NORAD_CAT_ID":60746,"ELEMENT_SET_NO":999,"REV_AT_EPOCH":8476,"BSTAR":0.00066193599,"MEAN_MOTION_DOT":0.00019515,"MEAN_MOTION_DDOT":0},{"OBJECT_NAME":"STARLINK-34680","OBJECT_ID":"2025-190F","EPOCH":"2026-03-09T12:18:48.694176","MEAN_MOTION":15.30211378,"ECCENTRICITY":0.00015025,"INCLINATION":53.1591,"RA_OF_ASC_NODE":169.3184,"ARG_OF_PERICENTER":147.6233,"MEAN_ANOMALY":212.486,"EPHEMERIS_TYPE":0,"CLASSIFICATION_TYPE":"U","NORAD_CAT_ID":65356,"ELEMENT_SET_NO":999,"REV_AT_EPOCH":2925,"BSTAR":0.0010535781,"MEAN_MOTION_DOT":0.00030986,"MEAN_MOTION_DDOT":0}]
